GSAT0225 (GALILEO 29)   
1 59598U 24079A   26192.12543272 -.00000028  00000+0  00000+0 0  9993
2 59598  55.1331 100.4115 0000654 323.3277 193.7943  1.70473636 13726
GSAT0227 (GALILEO 30)   
1 59600U 24079C   26192.05287902 -.00000027  00000+0  00000+0 0  9993
2 59600  55.1286 100.4115 0002780  67.2139 292.8235  1.70473759 13778
GSAT0232 (GALILEO 32)   
1 61182U 24167A   26191.13649870  .00000090  00000+0  00000+0 0  9992
2 61182  55.1805 220.6842 0006470 230.0654 143.1873  1.70473966 11276
GSAT0226 (GALILEO 31)   
1 61183U 24167B   26193.01400109  .00000086  00000+0  00000+0 0  9997
2 61183  55.1790 220.6397 0003222 234.5701 302.2835  1.70473914 11278
BEIDOU-3 M25            
1 61186U 24168B   26190.47823550 -.00000067  00000+0  00000+0 0  9997
2 61186  54.4524 301.4683 0003287 292.5034  70.4681  1.86229902 12208
BEIDOU-3 M27            
1 61187U 24168C   26192.12990831 -.00000067  00000+0  00000+0 0  9999
2 61187  54.4462 301.3933 0000988  49.5976 115.7666  1.86229880  9709
NAVSTAR 83 (USA 440)    
1 62339U 24242A   26193.26819215 -.00000090  00000+0  00000+0 0  9990
2 62339  54.8376 333.1651 0017793   3.9815 355.5157  2.00571813 11755
QZS-6 (MICHIBIKI-6)     
1 62876U 25023A   26193.29575229 -.00000230  00000+0  00000+0 0  9997
2 62876   0.0168 332.1220 0001779 160.0191 354.9867  1.00267723  5208
COSMOS 2584 [GLONASS-K2]
1 63130U 25042A   26189.25686521 -.00000024  00000+0  00000+0 0  9992
2 63130  65.0959  72.0857 0005748 218.1439 141.8762  2.13103813 10495
NAVSTAR 84 (USA 545)    
1 64202U 25116A   26193.27483659 -.00000057  00000+0  00000+0 0  9995
2 64202  55.2500  30.1217 0008436 339.6194 207.7864  2.00573797  8375
COSMOS 2596 [GLONASS-K1]
1 65590U 25206B   26192.85152766 -.00000064  00000+0  00000+0 0  9999
2 65590  64.6188 314.1271 0011161 307.7339  46.0702  2.13100614  6431
GSAT0233 (GALILEO 33)   
1 67160U 25302A   26192.85901142 -.00000030  00000+0  00000+0 0  9994
2 67160  54.3485 101.4284 0000844 163.0788  15.1640  1.70473765  3549
GSAT0234 (GALILEO 34)   
1 67162U 25302C   26192.55778705 -.00000030  00000+0  00000+0 0  9990
2 67162  54.3508 101.4360 0002156 317.4765 216.0018  1.70473738  3596
NAVSTAR 85 (USA 581)    
1 67588U 26017A   26192.12827606 -.00000039  00000+0  00000+0 0  9993
2 67588  55.1033  87.7944 0021591 259.6787 100.1118  2.00570514432098
NAVSTAR 86 (USA 585)    
1 68791U 26087A   26192.84604384  .00000101  00000+0  00000+0 0  9991
2 68791  54.9620 206.8126 0020500 106.4580 257.2895  2.00572252  1335
